ONEWEB-0645             
1 55809U 23029P   25332.58020483  .00000943  00000+0  23222-2 0  9996
2 55809  87.9189 344.9071 0002292  92.1715 267.9680 13.19721139132448
ONEWEB-0646             
1 55810U 23029Q   25332.59759804  .00000023  00000+0  26075-4 0  9995
2 55810  87.9197 344.8939 0002078  85.3523 274.7847 13.19726663132431
ONEWEB-0648             
1 55811U 23029R   25332.54202880  .00000098  00000+0  23045-3 0  9993
2 55811  87.8986 329.6782 0002785  85.6354 274.5094 13.14502658133034
ONEWEB-0649             
1 55812U 23029S   25332.54702664 -.00000189  00000+0 -50403-3 0  9990
2 55812  87.9197 344.8996 0002304  88.6562 271.4835 13.19723589132465
ONEWEB-0650             
1 55813U 23029T   25332.54229502  .00000019  00000+0  14934-4 0  9996
2 55813  87.9196 344.9078 0002298  84.3244 275.8151 13.19726723132438
ONEWEB-0652             
1 55814U 23029U   25332.52299558  .00000335  00000+0  86984-3 0  9997
2 55814  87.8982 329.7028 0001627  90.5607 269.5709 13.14502250133009
ONEWEB-0653             
1 55815U 23029V   25332.50713928  .00000121  00000+0  29059-3 0  9991
2 55815  87.8983 329.6954 0001782  94.2947 265.8387 13.14502712133035
ONEWEB-0654             
1 55816U 23029W   25332.50237743 -.00000106  00000+0 -32061-3 0  9990
2 55816  87.8984 329.6956 0001522  96.3881 263.7423 13.14503330133058
